*******************************************************************************
 Revised: July 31, 2013                  Sun                                 10

 PHYSICAL PROPERTIES (updated 2018-Aug-15):
  GM, km^3/s^2          = 132712440041.93938  Mass, 10^24 kg        = ~1988500
  Vol. mean radius, km  = 695700              Volume, 10^12 km^3    = 1412000
  Solar radius (IAU)    = 696000 km           Mean density, g/cm^3  = 1.408
  Radius (photosphere)  = 696500 km           Angular diam at 1 AU  = 1919.3"
  Photosphere temp., K  = 6600 (bottom)       Photosphere temp., K  = 4400(top)
  Photospheric depth    = ~500 km             Chromospheric depth   = ~2500 km
  Flatness, f           = 0.00005             Adopted sid. rot. per.= 25.38 d
  Surface gravity       =  274.0 m/s^2        Escape speed, km/s    =  617.7
  Pole (RA,DEC), deg.   = (286.13, 63.87)     Obliquity to ecliptic = 7.25 deg.
  Solar constant (1 AU) = 1367.6 W/m^2        Luminosity, 10^24 J/s = 382.8
  Mass-energy conv rate = 4.260 x 10^9 kg/s   Effective temp, K     = 5772
  Sunspot cycle         = 11.4 yr             Cycle 24 sunspot min. = 2008 A.D.

  Motion relative to nearby stars = apex : R.A.= 271 deg.; DEC.= +30 deg.
                                    speed: 19.4 km/s (0.0112 au/day)
  Motion relative to 2.73K BB/CBR = apex : l= 264.7 +- 0.8; b= 48.2 +- 0.5 deg.
                                    speed: 369 +-11 km/s
*******************************************************************************
 
 
*******************************************************************************
Ephemeris / WWW_USER Mon Oct 26 11:45:10 2020 Pasadena, USA      / Horizons
*******************************************************************************
Target body name: Sun (10)                        {source: DE431mx}
Center body name: Solar System Barycenter (0)     {source: DE431mx}
Center-site name: BODY CENTER
*******************************************************************************
Start time      : A.D. 2015-Jan-01 00:00:00.0000 TDB
Stop  time      : A.D. 2020-Dec-31 00:00:00.0000 TDB
Step-size       : 1440 minutes
*******************************************************************************
Center geodetic : 0.00000000,0.00000000,0.0000000 {E-lon(deg),Lat(deg),Alt(km)}
Center cylindric: 0.00000000,0.00000000,0.0000000 {E-lon(deg),Dxy(km),Dz(km)}
Center radii    : (undefined)                                                  
Output units    : AU-D
Output type     : GEOMETRIC cartesian states
Output format   : 2 (position and velocity)
Reference frame : Ecliptic of J2000.0
*******************************************************************************
JDTDB
   X     Y     Z
   VX    VY    VZ
*******************************************************************************
$$SOE
2457759.500000000 = A.D. 2017-Jan-06 00:00:00.0000 TDB 
 X = 3.372353955818108E-03 Y = 3.970178926977277E-03 Z =-1.558485187407013E-04
 VX=-2.660872955445466E-06 VY= 6.710779195283740E-06 VZ= 5.474021920097522E-08
2457760.500000000 = A.D. 2017-Jan-07 00:00:00.0000 TDB 
 X = 3.369688463735333E-03 Y = 3.976889544767269E-03 Z =-1.557936491036259E-04
 VX=-2.670120388747660E-06 VY= 6.710450922169206E-06 VZ= 5.499904967543751E-08
2457761.500000000 = A.D. 2017-Jan-08 00:00:00.0000 TDB 
 X = 3.367013697297043E-03 Y = 3.983599817917138E-03 Z =-1.557385206940892E-04
 VX=-2.679421072965794E-06 VY= 6.710089952352042E-06 VZ= 5.525772523555575E-08
2457762.500000000 = A.D. 2017-Jan-09 00:00:00.0000 TDB 
 X = 3.364329604941282E-03 Y = 3.990309713906151E-03 Z =-1.556831337696259E-04
 VX=-2.688771718735539E-06 VY= 6.709696693750059E-06 VZ= 5.551605374942393E-08
2457763.500000000 = A.D. 2017-Jan-10 00:00:00.0000 TDB 
 X = 3.361636138136815E-03 Y = 3.997019200762860E-03 Z =-1.556274887433962E-04
 VX=-2.698169548916185E-06 VY= 6.709271814720007E-06 VZ= 5.577391380818432E-08
2457764.500000000 = A.D. 2017-Jan-11 00:00:00.0000 TDB 
 X = 3.358933250885029E-03 Y = 4.003728247267604E-03 Z =-1.555715861195093E-04
 VX=-2.707612269022561E-06 VY= 6.708816133664972E-06 VZ= 5.603124295030578E-08
2457765.500000000 = A.D. 2017-Jan-12 00:00:00.0000 TDB 
 X = 3.356220899258221E-03 Y = 4.010436823055958E-03 Z =-1.555154264398335E-04
 VX=-2.717098023741442E-06 VY= 6.708330529584162E-06 VZ= 5.628802631774829E-08
2457766.500000000 = A.D. 2017-Jan-13 00:00:00.0000 TDB 
 X = 3.353499040985239E-03 Y = 4.017144898643472E-03 Z =-1.554590102416177E-04
 VX=-2.726625346577430E-06 VY= 6.707815873595005E-06 VZ= 5.654428639306151E-08
2457767.500000000 = A.D. 2017-Jan-14 00:00:00.0000 TDB 
 X = 3.350767635088995E-03 Y = 4.023852445391128E-03 Z =-1.554023380247722E-04
 VX=-2.736193107084333E-06 VY= 6.707272978360279E-06 VZ= 5.680007397568882E-08
2457768.500000000 = A.D. 2017-Jan-15 00:00:00.0000 TDB 
 X = 3.348026641576573E-03 Y = 4.030559435427967E-03 Z =-1.553454102275231E-04
 VX=-2.745800458903978E-06 VY= 6.706702562494197E-06 VZ= 5.705546045406953E-08
2457769.500000000 = A.D. 2017-Jan-16 00:00:00.0000 TDB 
 X = 3.345276021179944E-03 Y = 4.037265841544441E-03 Z =-1.552882272091558E-04
 VX=-2.755446790781068E-06 VY= 6.706105227202088E-06 VZ= 5.731053134822145E-08
2457770.500000000 = A.D. 2017-Jan-17 00:00:00.0000 TDB 
 X = 3.342515735143613E-03 Y = 4.043971637067476E-03 Z =-1.552307892386126E-04
 VX=-2.765131681849964E-06 VY= 6.705481442629153E-06 VZ= 5.756538103549057E-08
2457771.500000000 = A.D. 2017-Jan-18 00:00:00.0000 TDB 
 X = 3.339745745054563E-03 Y = 4.050676795725769E-03 Z =-1.551730964878292E-04
 VX=-2.774854861797191E-06 VY= 6.704831541654242E-06 VZ= 5.782010852990715E-08
2457772.500000000 = A.D. 2017-Jan-19 00:00:00.0000 TDB 
 X = 3.336966012709548E-03 Y = 4.057381291511781E-03 Z =-1.551151490288250E-04
 VX=-2.784616175992055E-06 VY= 6.704155719164969E-06 VZ= 5.807481416322882E-08
2457773.500000000 = A.D. 2017-Jan-20 00:00:00.0000 TDB 
 X = 3.334176500014851E-03 Y = 4.064085098545041E-03 Z =-1.550569468337276E-04
 VX=-2.794415555346983E-06 VY= 6.703454035190729E-06 VZ= 5.832959701320836E-08
2457774.500000000 = A.D. 2017-Jan-21 00:00:00.0000 TDB 
 X = 3.331377168913998E-03 Y = 4.070788190939994E-03 Z =-1.549984897770534E-04
 VX=-2.804252990519088E-06 VY= 6.702726420650154E-06 VZ= 5.858455294188804E-08
2457775.500000000 = A.D. 2017-Jan-22 00:00:00.0000 TDB 
 X = 3.328567981339228E-03 Y = 4.077490542680522E-03 Z =-1.549397776396891E-04
 VX=-2.814128510094950E-06 VY= 6.701972684889425E-06 VZ= 5.883977314386844E-08
2457776.500000000 = A.D. 2017-Jan-23 00:00:00.0000 TDB 
 X = 3.325748899182889E-03 Y = 4.084192127502749E-03 Z =-1.548808101140914E-04
 VX=-2.824042162611816E-06 VY= 6.701192524647574E-06 VZ= 5.909534316141728E-08
2457777.500000000 = A.D. 2017-Jan-24 00:00:00.0000 TDB 
 X = 3.322919884285263E-03 Y = 4.090892918787003E-03 Z =-1.548215868103130E-04
 VX=-2.833994001153440E-06 VY= 6.700385532915028E-06 VZ= 5.935134212415621E-08
2457778.500000000 = A.D. 2017-Jan-25 00:00:00.0000 TDB 
 X = 3.320080898436641E-03 Y = 4.097592889458622E-03 Z =-1.547621072626877E-04
 VX=-2.843984070900609E-06 VY= 6.699551208479947E-06 VZ= 5.960784231533455E-08
2457779.500000000 = A.D. 2017-Jan-26 00:00:00.0000 TDB 
 X = 3.317231903390454E-03 Y = 4.104292011898504E-03 Z =-1.547023709368035E-04
 VX=-2.854012398773119E-06 VY= 6.698688965137913E-06 VZ= 5.986490890137596E-08
2457780.500000000 = A.D. 2017-Jan-27 00:00:00.0000 TDB 
 X = 3.314372860885948E-03 Y = 4.110990257862613E-03 Z =-1.546423772366957E-04
 VX=-2.864078984958165E-06 VY= 6.697798140695643E-06 VZ= 6.012259981354121E-08
2457781.500000000 = A.D. 2017-Jan-28 00:00:00.0000 TDB 
 X = 3.311503732678481E-03 Y = 4.117687598410338E-03 Z =-1.545821255120908E-04
 VX=-2.874183796001305E-06 VY= 6.696878005608824E-06 VZ= 6.038096574298175E-08
2457782.500000000 = A.D. 2017-Jan-29 00:00:00.0000 TDB 
 X = 3.308624480576077E-03 Y = 4.124384003841288E-03 Z =-1.545216150656170E-04
 VX=-2.884326759186038E-06 VY= 6.695927771183266E-06 VZ= 6.064005021637470E-08
2457783.500000000 = A.D. 2017-Jan-30 00:00:00.0000 TDB 
 X = 3.305735066481045E-03 Y = 4.131079443640049E-03 Z =-1.544608451599019E-04
 VX=-2.894507757978154E-06 VY= 6.694946597325374E-06 VZ= 6.089988973063150E-08
2457784.500000000 = A.D. 2017-Jan-31 00:00:00.0000 TDB 
 X = 3.302835452435701E-03 Y = 4.137773886428478E-03 Z =-1.543998150245201E-04
 VX=-2.904726628343580E-06 VY= 6.693933599844230E-06 VZ= 6.116051392946641E-08
2457785.500000000 = A.D. 2017-Feb-01 00:00:00.0000 TDB 
 X = 3.299925600671413E-03 Y = 4.144467299925065E-03 Z =-1.543385238627449E-04
 VX=-2.914983155777843E-06 VY= 6.692887857321340E-06 VZ= 6.142194580851678E-08
2457786.500000000 = A.D. 2017-Feb-02 00:00:00.0000 TDB 
 X = 3.297005473660303E-03 Y = 4.151159650910985E-03 Z =-1.542769708580840E-04
 VX=-2.925277072911754E-06 VY= 6.691808417575422E-06 VZ= 6.168420193901922E-08
2457787.500000000 = A.D. 2017-Feb-03 00:00:00.0000 TDB 
 X = 3.294075034169118E-03 Y = 4.157850905202403E-03 Z =-1.542151551805895E-04
 VX=-2.935608057581245E-06 VY= 6.690694303758534E-06 VZ= 6.194729270293838E-08
2457788.500000000 = A.D. 2017-Feb-04 00:00:00.0000 TDB 
 X = 3.291134245314827E-03 Y = 4.164541027628713E-03 Z =-1.541530759929254E-04
 VX=-2.945975731269593E-06 VY= 6.689544520126288E-06 VZ= 6.221122253478636E-08
2457789.500000000 = A.D. 2017-Feb-05 00:00:00.0000 TDB 
 X = 3.288183070621630E-03 Y = 4.171229982016423E-03 Z =-1.540907324561924E-04
 VX=-2.956379657847559E-06 VY= 6.688358057528896E-06 VZ= 6.247599016726974E-08
2457790.500000000 = A.D. 2017-Feb-06 00:00:00.0000 TDB 
 X = 3.285221474079096E-03 Y = 4.177917731178385E-03 Z =-1.540281237355063E-04
 VX=-2.966819342551138E-06 VY= 6.687133898671347E-06 VZ= 6.274158887921493E-08
